[{"OBJECT_NAME":"STARLINK-32348","OBJECT_ID":"2024-191L","EPOCH":"2026-03-08T15:10:20.388288","MEAN_MOTION":15.27592448,"ECCENTRICITY":0.0001204,"INCLINATION":42.9988,"RA_OF_ASC_NODE":164.0301,"ARG_OF_PERICENTER":261.9989,"MEAN_ANOMALY":98.0726,"EPHEMERIS_TYPE":0,"CLASSIFICATION_TYPE":"U","NORAD_CAT_ID":61631,"ELEMENT_SET_NO":999,"REV_AT_EPOCH":7733,"BSTAR":3.5659992e-5,"MEAN_MOTION_DOT":7.2e-6,"MEAN_MOTION_DDOT":0},{"OBJECT_NAME":"OBJECT M","OBJECT_ID":"2024-205M","EPOCH":"2026-03-09T22:23:47.520096","MEAN_MOTION":15.27663844,"ECCENTRICITY":0.00036602,"INCLINATION":97.3915,"RA_OF_ASC_NODE":144.193,"ARG_OF_PERICENTER":310.2554,"MEAN_ANOMALY":49.8364,"EPHEMERIS_TYPE":0,"CLASSIFICATION_TYPE":"U","NORAD_CAT_ID":61905,"ELEMENT_SET_NO":999,"REV_AT_EPOCH":7334,"BSTAR":0.00036391974,"MEAN_MOTION_DOT":9.771e-5,"MEAN_MOTION_DDOT":0}]
